<?xml version="1.0" encoding="UTF-8"?>
<ndm xmlns:xsi="http://www.w3.org/2001/XMLSchema-instance" xsi:noNamespaceSchemaLocation="https://sanaregistry.org/r/ndmxml_unqualified/ndmxml-2.0.0-master-2.0.xsd">
<omm id="CCSDS_OMM_VERS" version="2.0">
<header><CREATION_DATE/><ORIGINATOR/></header><body><segment><metadata><OBJECT_NAME>IRIDIUM 119</OBJECT_NAME><OBJECT_ID>2017-061E</OBJECT_ID><CENTER_NAME>EARTH</CENTER_NAME><REF_FRAME>TEME</REF_FRAME><TIME_SYSTEM>UTC</TIME_SYSTEM><MEAN_ELEMENT_THEORY>SGP4</MEAN_ELEMENT_THEORY></metadata><data><meanElements><EPOCH>2023-11-20T18:19:14.739456</EPOCH><MEAN_MOTION>14.34218842</MEAN_MOTION><ECCENTRICITY>.0001989</ECCENTRICITY><INCLINATION>86.3987</INCLINATION><RA_OF_ASC_NODE>57.8342</RA_OF_ASC_NODE><ARG_OF_PERICENTER>104.2910</ARG_OF_PERICENTER><MEAN_ANOMALY>255.8506</MEAN_ANOMALY></meanElements><tleParameters><EPHEMERIS_TYPE>0</EPHEMERIS_TYPE><CLASSIFICATION_TYPE>U</CLASSIFICATION_TYPE><NORAD_CAT_ID>42959</NORAD_CAT_ID><ELEMENT_SET_NO>999</ELEMENT_SET_NO><REV_AT_EPOCH>32016</REV_AT_EPOCH><BSTAR>.10898E-3</BSTAR><MEAN_MOTION_DOT>.325E-5</MEAN_MOTION_DOT><MEAN_MOTION_DDOT>0</MEAN_MOTION_DDOT></tleParameters></data></segment></body></omm>
<omm id="CCSDS_OMM_VERS" version="2.0">
<header><CREATION_DATE/><ORIGINATOR/></header><body><segment><metadata><OBJECT_NAME>IRIDIUM 107</OBJECT_NAME><OBJECT_ID>2017-061F</OBJECT_ID><CENTER_NAME>EARTH</CENTER_NAME><REF_FRAME>TEME</REF_FRAME><TIME_SYSTEM>UTC</TIME_SYSTEM><MEAN_ELEMENT_THEORY>SGP4</MEAN_ELEMENT_THEORY></metadata><data><meanElements><EPOCH>2023-11-20T18:46:39.206208</EPOCH><MEAN_MOTION>14.34219352</MEAN_MOTION><ECCENTRICITY>.0002232</ECCENTRICITY><INCLINATION>86.3988</INCLINATION><RA_OF_ASC_NODE>57.8419</RA_OF_ASC_NODE><ARG_OF_PERICENTER>102.6057</ARG_OF_PERICENTER><MEAN_ANOMALY>257.5389</MEAN_ANOMALY></meanElements><tleParameters><EPHEMERIS_TYPE>0</EPHEMERIS_TYPE><CLASSIFICATION_TYPE>U</CLASSIFICATION_TYPE><NORAD_CAT_ID>42960</NORAD_CAT_ID><ELEMENT_SET_NO>999</ELEMENT_SET_NO><REV_AT_EPOCH>32017</REV_AT_EPOCH><BSTAR>.11027E-3</BSTAR><MEAN_MOTION_DOT>.329E-5</MEAN_MOTION_DOT><MEAN_MOTION_DDOT>0</MEAN_MOTION_DDOT></tleParameters></data></segment></body></omm>
<omm id="CCSDS_OMM_VERS" version="2.0">
<header><CREATION_DATE/><ORIGINATOR/></header><body><segment><metadata><OBJECT_NAME>IRIDIUM 132</OBJECT_NAME><OBJECT_ID>2017-061G</OBJECT_ID><CENTER_NAME>EARTH</CENTER_NAME><REF_FRAME>TEME</REF_FRAME><TIME_SYSTEM>UTC</TIME_SYSTEM><MEAN_ELEMENT_THEORY>SGP4</MEAN_ELEMENT_THEORY></metadata><data><meanElements><EPOCH>2023-11-20T18:55:46.983936</EPOCH><MEAN_MOTION>14.34220159</MEAN_MOTION><ECCENTRICITY>.0002153</ECCENTRICITY><INCLINATION>86.3987</INCLINATION><RA_OF_ASC_NODE>57.8250</RA_OF_ASC_NODE><ARG_OF_PERICENTER>102.7086</ARG_OF_PERICENTER><MEAN_ANOMALY>257.4350</MEAN_ANOMALY></meanElements><tleParameters><EPHEMERIS_TYPE>0</EPHEMERIS_TYPE><CLASSIFICATION_TYPE>U</CLASSIFICATION_TYPE><NORAD_CAT_ID>42961</NORAD_CAT_ID><ELEMENT_SET_NO>999</ELEMENT_SET_NO><REV_AT_EPOCH>32017</REV_AT_EPOCH><BSTAR>.10845E-3</BSTAR><MEAN_MOTION_DOT>.324E-5</MEAN_MOTION_DOT><MEAN_MOTION_DDOT>0</MEAN_MOTION_DDOT></tleParameters></data></segment></body></omm>
<omm id="CCSDS_OMM_VERS" version="2.0">
<header><CREATION_DATE/><ORIGINATOR/></header><body><segment><metadata><OBJECT_NAME>IRIDIUM 136</OBJECT_NAME><OBJECT_ID>2017-061H</OBJECT_ID><CENTER_NAME>EARTH</CENTER_NAME><REF_FRAME>TEME</REF_FRAME><TIME_SYSTEM>UTC</TIME_SYSTEM><MEAN_ELEMENT_THEORY>SGP4</MEAN_ELEMENT_THEORY></metadata><data><meanElements><EPOCH>2023-11-20T18:00:58.387392</EPOCH><MEAN_MOTION>14.34221280</MEAN_MOTION><ECCENTRICITY>.0001812</ECCENTRICITY><INCLINATION>86.3988</INCLINATION><RA_OF_ASC_NODE>57.8434</RA_OF_ASC_NODE><ARG_OF_PERICENTER>100.0562</ARG_OF_PERICENTER><MEAN_ANOMALY>260.0838</MEAN_ANOMALY></meanElements><tleParameters><EPHEMERIS_TYPE>0</EPHEMERIS_TYPE><CLASSIFICATION_TYPE>U</CLASSIFICATION_TYPE><NORAD_CAT_ID>42962</NORAD_CAT_ID><ELEMENT_SET_NO>999</ELEMENT_SET_NO><REV_AT_EPOCH>32018</REV_AT_EPOCH><BSTAR>.10927E-3</BSTAR><MEAN_MOTION_DOT>.326E-5</MEAN_MOTION_DOT><MEAN_MOTION_DDOT>0</MEAN_MOTION_DDOT></tleParameters></data></segment></body></omm>
<omm id="CCSDS_OMM_VERS" version="2.0">
<header><CREATION_DATE/><ORIGINATOR/></header><body><segment><metadata><OBJECT_NAME>IRIDIUM 139</OBJECT_NAME><OBJECT_ID>2017-061J</OBJECT_ID><CENTER_NAME>EARTH</CENTER_NAME><REF_FRAME>TEME</REF_FRAME><TIME_SYSTEM>UTC</TIME_SYSTEM><MEAN_ELEMENT_THEORY>SGP4</MEAN_ELEMENT_THEORY></metadata><data><meanElements><EPOCH>2023-11-20T18:10:06.847680</EPOCH><MEAN_MOTION>14.34218597</MEAN_MOTION><ECCENTRICITY>.0002232</ECCENTRICITY><INCLINATION>86.3989</INCLINATION><RA_OF_ASC_NODE>57.8877</RA_OF_ASC_NODE><ARG_OF_PERICENTER>101.5050</ARG_OF_PERICENTER><MEAN_ANOMALY>258.6396</MEAN_ANOMALY></meanElements><tleParameters><EPHEMERIS_TYPE>0</EPHEMERIS_TYPE><CLASSIFICATION_TYPE>U</CLASSIFICATION_TYPE><NORAD_CAT_ID>42963</NORAD_CAT_ID><ELEMENT_SET_NO>999</ELEMENT_SET_NO><REV_AT_EPOCH>32019</REV_AT_EPOCH><BSTAR>.97024E-4</BSTAR><MEAN_MOTION_DOT>.292E-5</MEAN_MOTION_DOT><MEAN_MOTION_DDOT>0</MEAN_MOTION_DDOT></tleParameters></data></segment></body></omm>
<omm id="CCSDS_OMM_VERS" version="2.0">
<header><CREATION_DATE/><ORIGINATOR/></header><body><segment><metadata><OBJECT_NAME>IRIDIUM 125</OBJECT_NAME><OBJECT_ID>2017-061K</OBJECT_ID><CENTER_NAME>EARTH</CENTER_NAME><REF_FRAME>TEME</REF_FRAME><TIME_SYSTEM>UTC</TIME_SYSTEM><MEAN_ELEMENT_THEORY>SGP4</MEAN_ELEMENT_THEORY></metadata><data><meanElements><EPOCH>2023-11-20T19:32:21.064416</EPOCH><MEAN_MOTION>14.34215956</MEAN_MOTION><ECCENTRICITY>.0002036</ECCENTRICITY><INCLINATION>86.3991</INCLINATION><RA_OF_ASC_NODE>57.9077</RA_OF_ASC_NODE><ARG_OF_PERICENTER>108.0749</ARG_OF_PERICENTER><MEAN_ANOMALY>252.0668</MEAN_ANOMALY></meanElements><tleParameters><EPHEMERIS_TYPE>0</EPHEMERIS_TYPE><CLASSIFICATION_TYPE>U</CLASSIFICATION_TYPE><NORAD_CAT_ID>42964</NORAD_CAT_ID><ELEMENT_SET_NO>999</ELEMENT_SET_NO><REV_AT_EPOCH>32021</REV_AT_EPOCH><BSTAR>.10866E-3</BSTAR><MEAN_MOTION_DOT>.324E-5</MEAN_MOTION_DOT><MEAN_MOTION_DDOT>0</MEAN_MOTION_DDOT></tleParameters></data></segment></body></omm>
<omm id="CCSDS_OMM_VERS" version="2.0">
<header><CREATION_DATE/><ORIGINATOR/></header><body><segment><metadata><OBJECT_NAME>IRIDIUM 135</OBJECT_NAME><OBJECT_ID>2017-083A</OBJECT_ID><CENTER_NAME>EARTH</CENTER_NAME><REF_FRAME>TEME</REF_FRAME><TIME_SYSTEM>UTC</TIME_SYSTEM><MEAN_ELEMENT_THEORY>SGP4</MEAN_ELEMENT_THEORY></metadata><data><meanElements><EPOCH>2023-11-20T18:55:03.077184</EPOCH><MEAN_MOTION>14.34215616</MEAN_MOTION><ECCENTRICITY>.0002413</ECCENTRICITY><INCLINATION>86.3979</INCLINATION><RA_OF_ASC_NODE>354.6321</RA_OF_ASC_NODE><ARG_OF_PERICENTER>90.1548</ARG_OF_PERICENTER><MEAN_ANOMALY>269.9924</MEAN_ANOMALY></meanElements><tleParameters><EPHEMERIS_TYPE>0</EPHEMERIS_TYPE><CLASSIFICATION_TYPE>U</CLASSIFICATION_TYPE><NORAD_CAT_ID>43070</NORAD_CAT_ID><ELEMENT_SET_NO>999</ELEMENT_SET_NO><REV_AT_EPOCH>30950</REV_AT_EPOCH><BSTAR>.87966E-4</BSTAR><MEAN_MOTION_DOT>.266E-5</MEAN_MOTION_DOT><MEAN_MOTION_DDOT>0</MEAN_MOTION_DDOT></tleParameters></data></segment></body></omm>
<omm id="CCSDS_OMM_VERS" version="2.0">
<header><CREATION_DATE/><ORIGINATOR/></header><body><segment><metadata><OBJECT_NAME>IRIDIUM 138</OBJECT_NAME><OBJECT_ID>2017-083B</OBJECT_ID><CENTER_NAME>EARTH</CENTER_NAME><REF_FRAME>TEME</REF_FRAME><TIME_SYSTEM>UTC</TIME_SYSTEM><MEAN_ELEMENT_THEORY>SGP4</MEAN_ELEMENT_THEORY></metadata><data><meanElements><EPOCH>2023-11-20T19:31:35.784768</EPOCH><MEAN_MOTION>14.34219163</MEAN_MOTION><ECCENTRICITY>.0002069</ECCENTRICITY><INCLINATION>86.3968</INCLINATION><RA_OF_ASC_NODE>354.3651</RA_OF_ASC_NODE><ARG_OF_PERICENTER>98.2762</ARG_OF_PERICENTER><MEAN_ANOMALY>261.8668</MEAN_ANOMALY></meanElements><tleParameters><EPHEMERIS_TYPE>0</EPHEMERIS_TYPE><CLASSIFICATION_TYPE>U</CLASSIFICATION_TYPE><NORAD_CAT_ID>43071</NORAD_CAT_ID><ELEMENT_SET_NO>999</ELEMENT_SET_NO><REV_AT_EPOCH>30949</REV_AT_EPOCH><BSTAR>.91866E-4</BSTAR><MEAN_MOTION_DOT>.277E-5</MEAN_MOTION_DOT><MEAN_MOTION_DDOT>0</MEAN_MOTION_DDOT></tleParameters></data></segment></body></omm>

</ndm>
