IRIDIUM 119             
1 42959U 17061E   23324.76336504  .00000325  00000+0  10898-3 0  9990
2 42959  86.3987  57.8342 0001989 104.2910 255.8506 14.34218842320165
IRIDIUM 107             
1 42960U 17061F   23324.78239822  .00000329  00000+0  11027-3 0  9998
2 42960  86.3988  57.8419 0002232 102.6057 257.5389 14.34219352320175
IRIDIUM 132             
1 42961U 17061G   23324.78873824  .00000324  00000+0  10845-3 0  9997
2 42961  86.3987  57.8250 0002153 102.7086 257.4350 14.34220159320177
IRIDIUM 136             
1 42962U 17061H   23324.75067578  .00000326  00000+0  10927-3 0  9999
2 42962  86.3988  57.8434 0001812 100.0562 260.0838 14.34221280320182
IRIDIUM 139             
1 42963U 17061J   23324.75702370  .00000292  00000+0  97024-4 0  9992
2 42963  86.3989  57.8877 0002232 101.5050 258.6396 14.34218597320190
IRIDIUM 125             
1 42964U 17061K   23324.81413269  .00000324  00000+0  10866-3 0  9990
2 42964  86.3991  57.9077 0002036 108.0749 252.0668 14.34215956320215
IRIDIUM 135             
1 43070U 17083A   23324.78823006  .00000266  00000+0  87966-4 0  9994
2 43070  86.3979 354.6321 0002413  90.1548 269.9924 14.34215616309500
IRIDIUM 138             
1 43071U 17083B   23324.81360862  .00000277  00000+0  91866-4 0  9991
2 43071  86.3968 354.3651 0002069  98.2762 261.8668 14.34219163309491
